{"type": "FeatureCollection", "features": [ {"type": "Feature", "properties": {"norad_id": 32372, "name": "FENGYUN 1C DEB", "group": "fengyun-1c-debris", "lat": -82.66776573779424, "lon": -41.81380127005707, "alt_km": 1392.3150726546055, "timestamp": "2025-12-08T23:34:04.256048+00:00", "meta": {"OBJECT_NAME": "FENGYUN 1C DEB", "OBJECT_ID": "1999-025CZR", "EPOCH": "2025-12-08T11:26:05.820000", "MEAN_MOTION": 13.35350079, "ECCENTRICITY": 0.04587484, "INCLINATION": 97.3177, "RA_OF_ASC_NODE": 224.773, "ARG_OF_PERICENTER": 51.233, "MEAN_ANOMALY": 312.8871, "EPHEMERIS_TYPE": 0, "CLASSIFICATION_TYPE": "U", "NORAD_CAT_ID": 32372, "ELEMENT_SET_NO": 999, "REV_AT_EPOCH": 60083, "BSTAR": 0.0034720167, "MEAN_MOTION_DOT": 3.183e-05, "MEAN_MOTION_DDOT": 0}, "tle": {"line1": "1 32372U 99025CZR 25342.47645625  .00003183  00000+0  34720-2 0  9999", "line2": "2 32372  97.3177 224.7730 0458748  51.2330 312.8871 13.35350079600831"}}, "geometry": {"type": "Point", "coordinates": [-41.81380127005707, -82.66776573779424]}}, {"type": "Feature", "properties": {"norad_id": 32409, "name": "FENGYUN 1C DEB", "group": "fengyun-1c-debris", "lat": -27.063659541844785, "lon": -38.800409553592694, "alt_km": 627.1413372957477, "timestamp": "2025-12-08T23:34:04.256058+00:00", "meta": {"OBJECT_NAME": "FENGYUN 1C DEB", "OBJECT_ID": "1999-025CZV", "EPOCH": "2025-12-07T05:07:54.004800", "MEAN_MOTION": 14.7602828, "ECCENTRICITY": 0.00392582, "INCLINATION": 99.5677, "RA_OF_ASC_NODE": 144.053, "ARG_OF_PERICENTER": 169.8692, "MEAN_ANOMALY": 6.8268, "EPHEMERIS_TYPE": 0, "CLASSIFICATION_TYPE": "U", "NORAD_CAT_ID": 32409, "ELEMENT_SET_NO": 999, "REV_AT_EPOCH": 58757, "BSTAR": 0.00306852, "MEAN_MOTION_DOT": 0.00021404, "MEAN_MOTION_DDOT": 0}, "tle": {"line1": "1 32409U 99025CZV 25341.21381950  .00021404  00000+0  30685-2 0  9991", "line2": "2 32409  99.5677 144.0530 0039258 169.8692   6.8268 14.76028280587578"}}, "geometry": {"type": "Point", "coordinates": [-38.800409553592694, -27.063659541844785]}}, {"type": "Feature", "properties": {"norad_id": 32411, "name": "FENGYUN 1C DEB", "group": "fengyun-1c-debris", "lat": -17.481626884255412, "lon": -96.14642568448795, "alt_km": 800.1825677836596, "timestamp": "2025-12-08T23:34:04.256069+00:00", "meta": {"OBJECT_NAME": "FENGYUN 1C DEB", "OBJECT_ID": "1999-025CZX", "EPOCH": "2025-12-04T00:25:02.853696", "MEAN_MOTION": 14.09783201, "ECCENTRICITY": 0.0124615, "INCLINATION": 98.4286, "RA_OF_ASC_NODE": 256.5257, "ARG_OF_PERICENTER": 41.2219, "MEAN_ANOMALY": 319.8282, "EPHEMERIS_TYPE": 0, "CLASSIFICATION_TYPE": "U", "NORAD_CAT_ID": 32411, "ELEMENT_SET_NO": 999, "REV_AT_EPOCH": 65691, "BSTAR": 0.00077808589, "MEAN_MOTION_DOT": 1.43e-05, "MEAN_MOTION_DDOT": 0}, "tle": {"line1": "1 32411U 99025CZX 25338.01739414  .00001430  00000+0  77809-3 0  9997", "line2": "2 32411  98.4286 256.5257 0124615  41.2219 319.8282 14.09783201656915"}}, "geometry": {"type": "Point", "coordinates": [-96.14642568448795, -17.481626884255412]}}, {"type": "Feature", "properties": {"norad_id": 32414, "name": "FENGYUN 1C DEB", "group": "fengyun-1c-debris", "lat": -33.59369099255205, "lon": 59.59277322438574, "alt_km": 813.304555501798, "timestamp": "2025-12-08T23:34:04.256079+00:00", "meta": {"OBJECT_NAME": "FENGYUN 1C DEB", "OBJECT_ID": "1999-025DAA", "EPOCH": "2025-12-08T10:10:57.710784", "MEAN_MOTION": 14.18376108, "ECCENTRICITY": 0.00450145, "INCLINATION": 98.8578, "RA_OF_ASC_NODE": 53.0907, "ARG_OF_PERICENTER": 11.0611, "MEAN_ANOMALY": 349.1543, "EPHEMERIS_TYPE": 0, "CLASSIFICATION_TYPE": "U", "NORAD_CAT_ID": 32414, "ELEMENT_SET_NO": 999, "REV_AT_EPOCH": 93671, "BSTAR": 0.0020734301, "MEAN_MOTION_DOT": 4.277e-05, "MEAN_MOTION_DDOT": 0}, "tle": {"line1": "1 32414U 99025DAA 25342.42427906  .00004277  00000+0  20734-2 0  9996", "line2": "2 32414  98.8578  53.0907 0045014  11.0611 349.1543 14.18376108936713"}}, "geometry": {"type": "Point", "coordinates": [59.59277322438574, -33.59369099255205]}}, {"type": "Feature", "properties": {"norad_id": 32419, "name": "FENGYUN 1C DEB", "group": "fengyun-1c-debris", "lat": -57.6715010149226, "lon": 85.94035497767464, "alt_km": 1061.3647898415766, "timestamp": "2025-12-08T23:34:04.256089+00:00", "meta": {"OBJECT_NAME": "FENGYUN 1C DEB", "OBJECT_ID": "1999-025DAF", "EPOCH": "2025-12-07T02:09:41.819904", "MEAN_MOTION": 14.09880398, "ECCENTRICITY": 0.02845856, "INCLINATION": 97.9434, "RA_OF_ASC_NODE": 277.012, "ARG_OF_PERICENTER": 45.3064, "MEAN_ANOMALY": 317.0914, "EPHEMERIS_TYPE": 0, "CLASSIFICATION_TYPE": "U", "NORAD_CAT_ID": 32419, "ELEMENT_SET_NO": 999, "REV_AT_EPOCH": 63491, "BSTAR": 0.0013007536, "MEAN_MOTION_DOT": 3.3e-05, "MEAN_MOTION_DDOT": 0}, "tle": {"line1": "1 32419U 99025DAF 25341.09006736  .00003300  00000+0  13008-2 0  9999", "line2": "2 32419  97.9434 277.0120 0284585  45.3064 317.0914 14.09880398634918"}}, "geometry": {"type": "Point", "coordinates": [85.94035497767464, -57.6715010149226]}}, {"type": "Feature", "properties": {"norad_id": 32422, "name": "FENGYUN 1C DEB", "group": "fengyun-1c-debris", "lat": -18.67795834896501, "lon": -67.64776964997327, "alt_km": 954.9024000056061, "timestamp": "2025-12-08T23:34:04.256099+00:00", "meta": {"OBJECT_NAME": "FENGYUN 1C DEB", "OBJECT_ID": "1999-025DAJ", "EPOCH": "2025-12-04T15:31:47.977248", "MEAN_MOTION": 13.97990532, "ECCENTRICITY": 0.0298457, "INCLINATION": 97.839, "RA_OF_ASC_NODE": 111.3103, "ARG_OF_PERICENTER": 315.8361, "MEAN_ANOMALY": 41.9322, "EPHEMERIS_TYPE": 0, "CLASSIFICATION_TYPE": "U", "NORAD_CAT_ID": 32422, "ELEMENT_SET_NO": 999, "REV_AT_EPOCH": 63020, "BSTAR": 0.00049372, "MEAN_MOTION_DOT": 9.86e-06, "MEAN_MOTION_DDOT": 0}, "tle": {"line1": "1 32422U 99025DAJ 25338.64708307  .00000986  00000+0  49372-3 0  9994", "line2": "2 32422  97.8390 111.3103 0298457 315.8361  41.9322 13.97990532630203"}}, "geometry": {"type": "Point", "coordinates": [-67.64776964997327, -18.67795834896501]}}, {"type": "Feature", "properties": {"norad_id": 32425, "name": "FENGYUN 1C DEB", "group": "fengyun-1c-debris", "lat": -66.271986705183, "lon": -63.2729683472149, "alt_km": 766.3770424545628, "timestamp": "2025-12-08T23:34:04.256109+00:00", "meta": {"OBJECT_NAME": "FENGYUN 1C DEB", "OBJECT_ID": "1999-025DAM", "EPOCH": "2025-12-06T04:16:42.340512", "MEAN_MOTION": 14.16717033, "ECCENTRICITY": 0.02322591, "INCLINATION": 96.701, "RA_OF_ASC_NODE": 130.1238, "ARG_OF_PERICENTER": 319.3009, "MEAN_ANOMALY": 39.1014, "EPHEMERIS_TYPE": 0, "CLASSIFICATION_TYPE": "U", "NORAD_CAT_ID": 32425, "ELEMENT_SET_NO": 999, "REV_AT_EPOCH": 69442, "BSTAR": 0.00073001869, "MEAN_MOTION_DOT": 1.869e-05, "MEAN_MOTION_DDOT": 0}, "tle": {"line1": "1 32425U 99025DAM 25340.17826783  .00001869  00000+0  73002-3 0  9995", "line2": "2 32425  96.7010 130.1238 0232259 319.3009  39.1014 14.16717033694423"}}, "geometry": {"type": "Point", "coordinates": [-63.2729683472149, -66.271986705183]}}, {"type": "Feature", "properties": {"norad_id": 32430, "name": "FENGYUN 1C DEB", "group": "fengyun-1c-debris", "lat": -74.15959033618299, "lon": 40.73088508687425, "alt_km": 736.332814431883, "timestamp": "2025-12-08T23:34:04.256120+00:00", "meta": {"OBJECT_NAME": "FENGYUN 1C DEB", "OBJECT_ID": "1999-025DAS", "EPOCH": "2025-11-28T08:01:51.379680", "MEAN_MOTION": 13.700237, "ECCENTRICITY": 0.03669598, "INCLINATION": 98.6995, "RA_OF_ASC_NODE": 358.4209, "ARG_OF_PERICENTER": 308.4, "MEAN_ANOMALY": 48.4718, "EPHEMERIS_TYPE": 0, "CLASSIFICATION_TYPE": "U", "NORAD_CAT_ID": 32430, "ELEMENT_SET_NO": 999, "REV_AT_EPOCH": 91006, "BSTAR": 0.0013292219, "MEAN_MOTION_DOT": 1.837e-05, "MEAN_MOTION_DDOT": 0}, "tle": {"line1": "1 32430U 99025DAS 25332.33462245  .00001837  00000+0  13292-2 0  9998", "line2": "2 32430  98.6995 358.4209 0366959 308.4000  48.4718 13.70023700910065"}}, "geometry": {"type": "Point", "coordinates": [40.73088508687425, -74.15959033618299]}}, {"type": "Feature", "properties": {"norad_id": 32432, "name": "FENGYUN 1C DEB", "group": "fengyun-1c-debris", "lat": 81.77236979349324, "lon": -77.07778116732227, "alt_km": 793.6718854372466, "timestamp": "2025-12-08T23:34:04.256130+00:00", "meta": {"OBJECT_NAME": "FENGYUN 1C DEB", "OBJECT_ID": "1999-025DAU", "EPOCH": "2025-12-07T09:07:22.825056", "MEAN_MOTION": 14.52359582, "ECCENTRICITY": 0.01730091, "INCLINATION": 98.1727, "RA_OF_ASC_NODE": 17.7015, "ARG_OF_PERICENTER": 322.3738, "MEAN_ANOMALY": 36.5455, "EPHEMERIS_TYPE": 0, "CLASSIFICATION_TYPE": "U", "NORAD_CAT_ID": 32432, "ELEMENT_SET_NO": 999, "REV_AT_EPOCH": 70617, "BSTAR": 0.0024878877, "MEAN_MOTION_DOT": 0.00012291, "MEAN_MOTION_DDOT": 0}, "tle": {"line1": "1 32432U 99025DAU 25341.38012529  .00012291  00000+0  24879-2 0  9990", "line2": "2 32432  98.1727  17.7015 0173009 322.3738  36.5455 14.52359582706172"}}, "geometry": {"type": "Point", "coordinates": [-77.07778116732227, 81.77236979349324]}}, {"type": "Feature", "properties": {"norad_id": 32440, "name": "FENGYUN 1C DEB", "group": "fengyun-1c-debris", "lat": -14.220579002747003, "lon": 16.110886941304518, "alt_km": 1043.092162663681, "timestamp": "2025-12-08T23:34:04.256140+00:00", "meta": {"OBJECT_NAME": "FENGYUN 1C DEB", "OBJECT_ID": "1999-025DBC", "EPOCH": "2025-12-05T08:12:44.739072", "MEAN_MOTION": 13.61195229, "ECCENTRICITY": 0.03213757, "INCLINATION": 99.1546, "RA_OF_ASC_NODE": 195.0359, "ARG_OF_PERICENTER": 110.0631, "MEAN_ANOMALY": 253.5405, "EPHEMERIS_TYPE": 0, "CLASSIFICATION_TYPE": "U", "NORAD_CAT_ID": 32440, "ELEMENT_SET_NO": 999, "REV_AT_EPOCH": 60185, "BSTAR": 0.0046022853, "MEAN_MOTION_DOT": 4.901e-05, "MEAN_MOTION_DDOT": 0}, "tle": {"line1": "1 32440U 99025DBC 25339.34218448  .00004901  00000+0  46023-2 0  9994", "line2": "2 32440  99.1546 195.0359 0321375 110.0631 253.5405 13.61195229601857"}}, "geometry": {"type": "Point", "coordinates": [16.110886941304518, -14.220579002747003]}}]}